1 23986U 94029AG  18007.19194566 +.00000410 +00000-0 +31566-4 0  9999
2 23986 082.0478 277.0271 0072371 123.7098 028.2204 14.96774881166843
1 23986U 94029AG  18007.84033066  .00000379  00000-0  29008-4 0  9990
2 23986  82.0478 276.3680 0072400 121.5855 281.9395 14.96775260166952
1 23986U 94029AG  18008.19452087 +.00000377 +00000-0 +28860-4 0  9990
2 23986 082.0478 276.0080 0072408 120.4276 030.4349 14.96775543166990
1 23986U 94029AG  18008.77872205 +.00000400 +00000-0 +30727-4 0  9994
2 23986 082.0477 275.4141 0072432 118.5128 298.3123 14.96776193167089
1 23986U 94029AG  18009.46000176 +.00000410 +00000-0 +31621-4 0  9996
2 23986 082.0476 274.7216 0072447 116.2810 009.2831 14.96776896167188
1 23986U 94029AG  18009.92245531  .00000397  00000-0  30503-4 0  9995
2 23986  82.0475 274.2515 0072452 114.7770 341.1316 14.96777208167261
1 23986U 94029AG  18009.92245531 +.00000397 +00000-0 +30503-4 0  9995
2 23986 082.0475 274.2515 0072452 114.7770 341.1316 14.96777208167250
1 23986U 94029AG  18010.26615568 +.00000406 +00000-0 +31227-4 0  9990
2 23986 082.0476 273.9022 0072470 113.6509 033.1085 14.96777536167309
1 23986U 94029AG  18010.78495720 +.00000405 +00000-0 +31185-4 0  9995
2 23986 082.0476 273.3748 0072492 111.9583 308.5849 14.96777958167388
1 23986U 94029AG  18011.19750903 +.00000408 +00000-0 +31388-4 0  9996
2 23986 082.0475 272.9554 0072503 110.6162 011.5488 14.96778262167445
1 23986U 94029AG  18011.78790959 +.00000431 +00000-0 +33297-4 0  9993
2 23986 082.0475 272.3552 0072531 108.6883 312.8278 14.96778796167531
1 23986U 94029AG  18012.20085917  .00000446  00000-0  34562-4 0  9994
2 23986  82.0475 271.9354 0072542 107.3428  17.9382 14.96779142167602
1 23986U 94029AG  18012.46736405 +.00000447 +00000-0 +34635-4 0  9999
2 23986 082.0474 271.6645 0072554 106.4726 013.9573 14.96779280167639
1 23986U 94029AG  18012.79107073 +.00000457 +00000-0 +35513-4 0  9995
2 23986 082.0474 271.3354 0072567 105.4145 318.2010 14.96779542167684
1 23986U 94029AG  18013.20251000 +.00000478 +00000-0 +37252-4 0  9997
2 23986 082.0474 270.9172 0072580 104.0714 015.1772 14.96779903167745
1 23986U 94029AG  18013.79467877 +.00000486 +00000-0 +37901-4 0  9992
2 23986 082.0473 270.3152 0072602 102.1301 325.9944 14.96780291167837
1 23986U 94029AG  18014.20564314  .00000491  00000-0  38314-4 0  9998
2 23986  82.0473 269.8974 0072611 100.7872  20.4141 14.96780585167909
1 23986U 94029AG  18014.79182191 +.00000507 +00000-0 +39647-4 0  9999
2 23986 082.0472 269.3015 0072624 098.8773 298.9470 14.96781181167988
1 23986U 94029AG  18015.20857639 +.00000501 +00000-0 +39134-4 0  9997
2 23986 082.0472 268.8778 0072624 097.5129 024.5696 14.96781469168049
1 23986U 94029AG  18016.21166840  .00000446  00000-0  34545-4 0  9995
2 23986  82.0471 267.8580 0072631  94.2327  29.5875 14.96782018168203
1 23986U 94029AG  18016.79878014 +.00000423 +00000-0 +32668-4 0  9990
2 23986 082.0470 267.2612 0072636 092.3141 313.1546 14.96782401168281
1 23986U 94029AG  18017.41524597 +.00000437 +00000-0 +33784-4 0  9999
2 23986 082.0470 266.6344 0072635 090.3001 034.8931 14.96783030168372
1 23986U 94029AG  18017.66514657 +.00000416 +00000-0 +32040-4 0  9993
2 23986 082.0470 266.3804 0072637 089.4867 301.4443 14.96783159168419
1 23986U 94029AG  18018.14884804 +.00000424 +00000-0 +32766-4 0  9995
2 23986 082.0470 265.8886 0072628 087.9127 027.7962 14.96783656168488
1 23986U 94029AG  18018.66668602  .00000420  00000-0  32404-4 0  9993
2 23986  82.0469 265.3622 0072626  86.2271 298.0880 14.96784081168574
1 23986U 94029AG  18020.42261897 +.00000470 +00000-0 +36572-4 0  9990
2 23986 082.0467 263.5770 0072625 080.5134 039.6738 14.96785766168820
1 23986U 94029AG  18021.42516500  .00000495  00000-0  38622-4 0  9990
2 23986  82.0465 262.5577 0072631  77.2470  41.7535 14.96786588168984
1 23986U 94029AG  18021.74430971 +.00000513 +00000-0 +40098-4 0  9993
2 23986 082.0464 262.2333 0072611 076.2163 321.4127 14.96786964169025
